NORAD_CAT_ID,OBJECT_NAME,OBJECT_TYPE,EPOCH,MEAN_MOTION,ECCENTRICITY,INCLINATION,RA_OF_ASC_NODE,ARG_OF_PERICENTER,MEAN_ANOMALY,BSTAR,MEAN_MOTION_DOT,MEAN_MOTION_DDOT,TLE_LINE0,TLE_LINE1,TLE_LINE2,SEMIMAJOR_AXIS,PERIOD,APOGEE,PERIGEE,DECAYED
51726.0,STARLINK-3527,PAYLOAD,2022-03-27 06:00:00,15.73248439,0.0001,53.2167,333.0364,96.3336,308.5066,-0.00053424,-0.00075083,0.0,0 STARLINK-3527,1 51726U 22016N   22086.25001157 -.00075083  00000-0 -53424-3 0  9997,2 51726  53.2167 333.0364 0001000  96.3336 308.5066 15.73248439  6516,6727.757,91.53,350.295,348.949,0.0
51726.0,STARLINK-3527,PAYLOAD,2022-03-27 14:00:01,15.73258167,9.69e-05,53.2168,331.3752,104.3211,29.51,-0.0030556,-0.00410191,0.0,0 STARLINK-3527,1 51726U 22016N   22086.58334491 -.00410191  00000-0 -30556-2 0  9996,2 51726  53.2168 331.3752 0000969 104.3211  29.5100 15.73258167  6567,6727.729,91.53,350.246,348.94199999999995,0.0
51726.0,STARLINK-3527,PAYLOAD,2022-03-27 22:00:01,15.73225602,0.0001002,53.2173,329.7371,100.4491,122.3811,-0.00033135,-0.00046913,0.0,0 STARLINK-3527,1 51726U 22016N   22086.91668981 -.00046913  00000-0 -33135-3 0  9991,2 51726  53.2173 329.7371 0001002 100.4491 122.3811 15.73225602  6623,6727.821999999999,91.532,350.361,349.01300000000015,0.0
51726.0,STARLINK-3527,PAYLOAD,2022-03-28 06:00:00,15.73265267,8.26e-05,53.2169,328.0877,98.211,213.5148,-0.00023973,-0.0003422,0.0,0 STARLINK-3527,1 51726U 22016N   22087.25001157 -.00034220  00000-0 -23973-3 0  9992,2 51726  53.2169 328.0877 0000826  98.2110 213.5148 15.73265267  6678,6727.709,91.529,350.13,349.01800000000014,0.0
51726.0,STARLINK-3527,PAYLOAD,2022-03-28 14:00:01,15.73195884,0.0001089,53.2168,326.4364,109.5945,291.1936,0.00059125,0.00083168,0.0,0 STARLINK-3527,1 51726U 22016N   22087.58335648  .00083168  00000-0  59125-3 0  9994,2 51726  53.2168 326.4364 0001089 109.5945 291.1936 15.73195884  3709,6727.906999999997,91.533,350.505,349.039,0.0
51726.0,STARLINK-3527,PAYLOAD,2022-03-28 22:00:00,15.7327559,0.0001102,53.2166,324.7889,99.2086,30.4838,-0.00081724,-0.00114136,0.0,0 STARLINK-3527,1 51726U 22016N   22087.91667824 -.00114136  00000-0 -81724-3 0  9997,2 51726  53.2166 324.7889 0001102  99.2086  30.4838 15.73275590  3682,6727.68,91.529,350.286,348.80300000000005,0.0
51726.0,STARLINK-3527,PAYLOAD,2022-03-29 14:00:01,15.731324300000002,0.0001308,53.2165,321.4882,108.3105,199.2184,8.615e-05,0.00011453,0.0,0 STARLINK-3527,1 51726U 22016N   22088.58334491  .00011453  00000-0  86150-4 0  9997,2 51726  53.2165 321.4882 0001308 108.3105 199.2184 15.73132430  6888,6728.0880000000025,91.537,350.833,349.0730000000001,0.0
51726.0,STARLINK-3527,PAYLOAD,2022-03-29 22:00:00,15.73126015,0.0001377,53.2165,319.841,97.5411,298.8343,0.000285,0.00039439,0.0,0 STARLINK-3527,1 51726U 22016N   22088.91667824  .00039439  00000-0  28500-3 0  9991,2 51726  53.2165 319.8410 0001377  97.5411 298.8343 15.73126015  3669,6728.106,91.537,350.898,349.045,0.0
51726.0,STARLINK-3527,PAYLOAD,2022-03-30 12:00:00,15.73170832,0.0001229,53.2161,316.9528,107.2711,354.6437,0.00073829,0.00104156,0.0,0 STARLINK-3527,1 51726U 22016N   22089.50001157  .00104156  00000-0  73829-3 0  9991,2 51726  53.2161 316.9528 0001229 107.2711 354.6437 15.73170832  7026,6727.978,91.535,350.67,349.016,0.0
51726.0,STARLINK-3527,PAYLOAD,2022-03-30 14:00:01,15.73202216,0.0001234,53.2161,316.5403,109.55,104.6536,0.00050309,0.00070587,0.0,0 STARLINK-3527,1 51726U 22016N   22089.58335648  .00070587  00000-0  50309-3 0  9992,2 51726  53.2161 316.5403 0001234 109.5500 104.6536 15.73202216  3662,6727.889,91.533,350.584,348.9240000000001,0.0
51726.0,STARLINK-3527,PAYLOAD,2022-03-30 20:00:01,15.73263401,0.0001094,53.2159,315.3048,101.6971,89.1553,-0.00052146,-0.00073364,0.0,0 STARLINK-3527,1 51726U 22016N   22089.83334491 -.00073364  00000-0 -52146-3 0  9994,2 51726  53.2159 315.3048 0001094 101.6971  89.1553 15.73263401  7089,6727.714,91.529,350.315,348.843,0.0
51726.0,STARLINK-3527,PAYLOAD,2022-03-30 22:00:00,15.73229336,0.0001089,53.2157,314.8929,98.7382,204.3686,-0.00011687,-0.00017009,0.0,0 STARLINK-3527,1 51726U 22016N   22089.91667824 -.00017009  00000-0 -11687-3 0  9991,2 51726  53.2157 314.8929 0001089  98.7382 204.3686 15.73229336  3729,6727.812,91.531,350.409,348.944,0.0
51726.0,STARLINK-3527,PAYLOAD,2022-03-31 06:00:00,15.73272518,9.03e-05,53.2156,313.2424,99.7766,292.2767,-0.00087002,-0.00121345,0.0,0 STARLINK-3527,1 51726U 22016N   22090.25001157 -.00121345  00000-0 -87002-3 0  9994,2 51726  53.2156 313.2424 0000903  99.7766 292.2767 15.73272518  7148,6727.688,91.529,350.161,348.946,0.0
51726.0,STARLINK-3527,PAYLOAD,2022-03-31 14:00:01,15.73161721,9.49e-05,53.2155,311.5915,115.4378,5.5928,0.00030527,0.00042368,0.0,0 STARLINK-3527,1 51726U 22016N   22090.58334491  .00042368  00000-0  30527-3 0  9995,2 51726  53.2155 311.5915 0000949 115.4378   5.5928 15.73161721  7190,6728.004,91.535,350.5080000000001,349.231,0.0
51726.0,STARLINK-3527,PAYLOAD,2022-03-31 22:00:00,15.73207166,7.92e-05,53.2156,309.9441,96.9615,113.0019,0.00051716,0.00072611,0.0,0 STARLINK-3527,1 51726U 22016N   22090.91667824  .00072611  00000-0  51716-3 0  9998,2 51726  53.2156 309.9441 0000792  96.9615 113.0019 15.73207166  7256,6727.875,91.533,350.273,349.207,0.0
51726.0,STARLINK-3527,PAYLOAD,2022-04-01 14:00:01,15.7323838,0.0001229,53.2153,306.6427,103.9832,283.9523,-0.00041517,-0.00058577,0.0,0 STARLINK-3527,1 51726U 22016N   22091.58334491 -.00058577  00000-0 -41517-3 0  9998,2 51726  53.2153 306.6427 0001229 103.9832 283.9523 15.73238380  7357,6727.786,91.531,350.478,348.824,0.0
51726.0,STARLINK-3527,PAYLOAD,2022-04-01 22:00:00,15.73191593,0.0001286,53.215,304.9942,90.7117,26.1766,-0.00058325,-0.00081655,0.0,0 STARLINK-3527,1 51726U 22016N   22091.91667824 -.00081655  00000-0 -58325-3 0  9992,2 51726  53.2150 304.9942 0001286  90.7117  26.1766 15.73191593  3759,6727.919,91.534,350.649,348.9190000000001,0.0
51726.0,STARLINK-3527,PAYLOAD,2022-04-02 06:00:00,15.73280096,0.0001250999999999,53.2156,303.3363,96.561,109.1912,-0.0033019,-0.00442,0.0,0 STARLINK-3527,1 51726U 22016N   22092.25001157 -.00442000  00000-0 -33019-2 0  9998,2 51726  53.2156 303.3363 0001251  96.5610 109.1912 15.73280096  7463,6727.667,91.529,350.37300000000016,348.69,0.0
51726.0,STARLINK-3527,PAYLOAD,2022-04-02 14:00:01,15.7318745,0.0001412,53.2148,301.6938,102.7731,191.9742,-0.00011763,-0.00017086,0.0,0 STARLINK-3527,1 51726U 22016N   22092.58335648 -.00017086  00000-0 -11763-3 0  9994,2 51726  53.2148 301.6938 0001412 102.7731 191.9742 15.73187450  7512,6727.931,91.534,350.746,348.846,0.0
51726.0,STARLINK-3527,PAYLOAD,2022-04-02 22:00:01,15.73199151,0.0001284999999999,53.2148,300.0463,91.3888,292.2816,-0.000383,-0.00054025,0.0,0 STARLINK-3527,1 51726U 22016N   22092.91668981 -.00054025  00000-0 -38300-3 0  9990,2 51726  53.2148 300.0463 0001285  91.3888 292.2816 15.73199151  3662,6727.898,91.533,350.62699999999984,348.898,0.0
51726.0,STARLINK-3527,PAYLOAD,2022-04-03 22:00:00,15.73132866,0.0001138,53.2144,295.098,85.0243,205.2449,0.0004791,0.00066962,0.0,0 STARLINK-3527,1 51726U 22016N   22093.91667824  .00066962  00000-0  47910-3 0  9994,2 51726  53.2144 295.0980 0001138  85.0243 205.2449 15.73132866  7724,6728.087,91.537,350.717,349.186,0.0
51726.0,STARLINK-3527,PAYLOAD,2022-04-04 14:00:01,15.73240438,0.0001239,53.2145,291.7967,97.4089,10.6586,-0.00032883,-0.00046593,0.0,0 STARLINK-3527,1 51726U 22016N   22094.58334491 -.00046593  00000-0 -32883-3 0  9992,2 51726  53.2145 291.7967 0001239  97.4089  10.6586 15.73240438  3710,6727.78,91.531,350.478,348.811,0.0
51726.0,STARLINK-3527,PAYLOAD,2022-04-04 22:00:00,15.73194001,0.0001269,53.2146,290.1491,82.5125,114.5358,0.00074203,0.001048,0.0,0 STARLINK-3527,1 51726U 22016N   22094.91667824  .00104800  00000-0  74203-3 0  9994,2 51726  53.2146 290.1491 0001269  82.5125 114.5358 15.73194001  3664,6727.9119999999975,91.534,350.631,348.9240000000001,0.0
51726.0,STARLINK-3527,PAYLOAD,2022-04-05 00:00:00,15.73211406,0.0001185,53.2145,289.7368,79.721,229.5621,0.00068075,0.00096064,0.0,0 STARLINK-3527,1 51726U 22016N   22095.00001157  .00096064  00000-0  68075-3 0  9998,2 51726  53.2145 289.7368 0001185  79.7210 229.5621 15.73211406  7898,6727.863,91.533,350.525,348.93,0.0
51726.0,STARLINK-3527,PAYLOAD,2022-04-05 14:00:01,15.73297628,0.0001239,53.2153,286.8424,87.6612,287.4046,-0.0012637,-0.0017506,0.0,0 STARLINK-3527,1 51726U 22016N   22095.58335648 -.00175060  00000-0 -12637-2 0  9994,2 51726  53.2153 286.8424 0001239  87.6612 287.4046 15.73297628  3702,6727.6169999999975,91.528,350.315,348.648,0.0
51726.0,STARLINK-3527,PAYLOAD,2022-04-05 16:00:00,15.73302998,0.0001388,53.2155,286.4292,85.5601,41.6889,-0.0018739,-0.00256876,0.0,0 STARLINK-3527,1 51726U 22016N   22095.66667824 -.00256876  00000-0 -18739-2 0  9991,2 51726  53.2155 286.4292 0001388  85.5601  41.6889 15.73302998  7990,6727.602,91.527,350.4,348.533,0.0
51726.0,STARLINK-3527,PAYLOAD,2022-04-05 22:00:00,15.73124723,0.0001348,53.2161,285.1897,75.9106,28.0928,-0.0019588,-0.00266149,0.0,0 STARLINK-3527,1 51726U 22016N   22095.91667824 -.00266149  00000-0 -19588-2 0  9996,2 51726  53.2161 285.1897 0001348  75.9106  28.0928 15.73124723  3709,6728.11,91.538,350.88199999999995,349.0680000000001,0.0
51726.0,STARLINK-3527,PAYLOAD,2022-04-06 06:00:02,15.73121934,0.0001179,53.2171,283.5332,89.2026,103.5602,-0.0056261,-0.00723198,0.0,0 STARLINK-3527,1 51726U 22016N   22096.25002315 -.00723198  00000-0 -56261-2 0  9993,2 51726  53.2171 283.5332 0001179  89.2026 103.5602 15.73121934  8093,6728.118,91.538,350.776,349.19,0.0
51726.0,STARLINK-3527,PAYLOAD,2022-04-06 14:00:01,15.726088699999998,0.0001136,53.2175,281.8839,85.529,195.6888,-0.0057195,-0.0071947,0.0,0 STARLINK-3527,1 51726U 22016N   22096.58334491 -.00719470  00000-0 -57195-2 0  9997,2 51726  53.2175 281.8839 0001136  85.5290 195.6888 15.72608870  3704,6729.581,91.568,352.211,350.682,0.0
